[{"OBJECT_NAME":"ZHONGXING-1E","OBJECT_ID":"2022-112A","EPOCH":"2026-04-05T02:57:21.746304","MEAN_MOTION":1.00270987,"ECCENTRICITY":0.00017332,"INCLINATION":0.0284,"RA_OF_ASC_NODE":53.6684,"ARG_OF_PERICENTER":265.0907,"MEAN_ANOMALY":0.4129,"EPHEMERIS_TYPE":0,"CLASSIFICATION_TYPE":"U","NORAD_CAT_ID":53813,"ELEMENT_SET_NO":999,"REV_AT_EPOCH":1311,"BSTAR":0,"MEAN_MOTION_DOT":-1.48e-6,"MEAN_MOTION_DDOT":0},{"OBJECT_NAME":"SES-20","OBJECT_ID":"2022-123A","EPOCH":"2026-04-04T22:33:54.780768","MEAN_MOTION":1.00272587,"ECCENTRICITY":0.00018629,"INCLINATION":0.039,"RA_OF_ASC_NODE":81.0494,"ARG_OF_PERICENTER":340.8988,"MEAN_ANOMALY":6.671,"EPHEMERIS_TYPE":0,"CLASSIFICATION_TYPE":"U","NORAD_CAT_ID":53960,"ELEMENT_SET_NO":999,"REV_AT_EPOCH":1279,"BSTAR":0,"MEAN_MOTION_DOT":-1.0e-6,"MEAN_MOTION_DDOT":0},{"OBJECT_NAME":"SES-21","OBJECT_ID":"2022-123B","EPOCH":"2026-04-05T00:08:36.525120","MEAN_MOTION":1.00269456,"ECCENTRICITY":0.00015117,"INCLINATION":0.0269,"RA_OF_ASC_NODE":69.0097,"ARG_OF_PERICENTER":296.3347,"MEAN_ANOMALY":59.1142,"EPHEMERIS_TYPE":0,"CLASSIFICATION_TYPE":"U","NORAD_CAT_ID":53961,"ELEMENT_SET_NO":999,"REV_AT_EPOCH":647,"BSTAR":0,"MEAN_MOTION_DOT":7.0e-7,"MEAN_MOTION_DDOT":0},{"OBJECT_NAME":"GALAXY 33 (G-33)","OBJECT_ID":"2022-128A","EPOCH":"2026-04-05T05:16:06.477024","MEAN_MOTION":1.00271395,"ECCENTRICITY":0.00019881,"INCLINATION":0.0128,"RA_OF_ASC_NODE":218.5888,"ARG_OF_PERICENTER":164.8127,"MEAN_ANOMALY":116.1496,"EPHEMERIS_TYPE":0,"CLASSIFICATION_TYPE":"U","NORAD_CAT_ID":54026,"ELEMENT_SET_NO":999,"REV_AT_EPOCH":1301,"BSTAR":0,"MEAN_MOTION_DOT":0,"MEAN_MOTION_DDOT":0},{"OBJECT_NAME":"GALAXY 34 (G-34)","OBJECT_ID":"2022-128B","EPOCH":"2026-04-05T05:49:38.512704","MEAN_MOTION":1.0028904,"ECCENTRICITY":0.00018281,"INCLINATION":0.0199,"RA_OF_ASC_NODE":244.0459,"ARG_OF_PERICENTER":99.508,"MEAN_ANOMALY":168.3927,"EPHEMERIS_TYPE":0,"CLASSIFICATION_TYPE":"U","NORAD_CAT_ID":54027,"ELEMENT_SET_NO":999,"REV_AT_EPOCH":1318,"BSTAR":0,"MEAN_MOTION_DOT":5.8e-7,"MEAN_MOTION_DDOT":0},{"OBJECT_NAME":"ANGOSAT 2","OBJECT_ID":"2022-131A","EPOCH":"2026-04-05T06:00:31.960224","MEAN_MOTION":1.00272708,"ECCENTRICITY":0.00012251,"INCLINATION":0.0179,"RA_OF_ASC_NODE":187.1242,"ARG_OF_PERICENTER":282.6331,"MEAN_ANOMALY":196.9284,"EPHEMERIS_TYPE":0,"CLASSIFICATION_TYPE":"U","NORAD_CAT_ID":54033,"ELEMENT_SET_NO":999,"REV_AT_EPOCH":1274,"BSTAR":0,"MEAN_MOTION_DOT":1.37e-6,"MEAN_MOTION_DDOT":0},{"OBJECT_NAME":"EUTELSAT HOTBIRD 13F","OBJECT_ID":"2022-134A","EPOCH":"2026-04-05T05:20:38.838336","MEAN_MOTION":1.00271931,"ECCENTRICITY":0.00019881,"INCLINATION":0.0534,"RA_OF_ASC_NODE":285.1812,"ARG_OF_PERICENTER":80.9519,"MEAN_ANOMALY":280.5598,"EPHEMERIS_TYPE":0,"CLASSIFICATION_TYPE":"U","NORAD_CAT_ID":54048,"ELEMENT_SET_NO":999,"REV_AT_EPOCH":1264,"BSTAR":0,"MEAN_MOTION_DOT":8.8e-7,"MEAN_MOTION_DDOT":0},{"OBJECT_NAME":"LDPE-2","OBJECT_ID":"2022-144A","EPOCH":"2026-04-05T06:32:28.896288","MEAN_MOTION":1.005418,"ECCENTRICITY":4.53e-5,"INCLINATION":5.4656,"RA_OF_ASC_NODE":64.0428,"ARG_OF_PERICENTER":354.4747,"MEAN_ANOMALY":8.2443,"EPHEMERIS_TYPE":0,"CLASSIFICATION_TYPE":"U","NORAD_CAT_ID":54219,"ELEMENT_SET_NO":999,"REV_AT_EPOCH":1111,"BSTAR":0,"MEAN_MOTION_DOT":-2.69e-6,"MEAN_MOTION_DDOT":0},{"OBJECT_NAME":"EUTELSAT HOTBIRD 13G","OBJECT_ID":"2022-146A","EPOCH":"2026-04-05T05:20:38.838336","MEAN_MOTION":1.00272207,"ECCENTRICITY":0.00020226,"INCLINATION":0.0424,"RA_OF_ASC_NODE":231.6369,"ARG_OF_PERICENTER":303.411,"MEAN_ANOMALY":111.6474,"EPHEMERIS_TYPE":0,"CLASSIFICATION_TYPE":"U","NORAD_CAT_ID":54225,"ELEMENT_SET_NO":999,"REV_AT_EPOCH":673,"BSTAR":0,"MEAN_MOTION_DOT":8.8e-7,"MEAN_MOTION_DDOT":0},{"OBJECT_NAME":"ZHONGXING-19","OBJECT_ID":"2022-148A","EPOCH":"2026-04-02T13:40:38.503776","MEAN_MOTION":1.00272198,"ECCENTRICITY":0.00024392,"INCLINATION":0.0299,"RA_OF_ASC_NODE":90.5303,"ARG_OF_PERICENTER":279.9636,"MEAN_ANOMALY":188.7496,"EPHEMERIS_TYPE":0,"CLASSIFICATION_TYPE":"U","NORAD_CAT_ID":54230,"ELEMENT_SET_NO":999,"REV_AT_EPOCH":1262,"BSTAR":0,"MEAN_MOTION_DOT":-8.7e-7,"MEAN_MOTION_DDOT":0},{"OBJECT_NAME":"GALAXY 31 (G-31)","OBJECT_ID":"2022-153A","EPOCH":"2026-04-05T04:02:38.789664","MEAN_MOTION":1.0027227,"ECCENTRICITY":0.00015393,"INCLINATION":0.01,"RA_OF_ASC_NODE":216.1865,"ARG_OF_PERICENTER":171.3814,"MEAN_ANOMALY":105.5612,"EPHEMERIS_TYPE":0,"CLASSIFICATION_TYPE":"U","NORAD_CAT_ID":54243,"ELEMENT_SET_NO":999,"REV_AT_EPOCH":640,"BSTAR":0,"MEAN_MOTION_DOT":1.4e-7,"MEAN_MOTION_DDOT":0},{"OBJECT_NAME":"GALAXY 32 (G-32)","OBJECT_ID":"2022-153B","EPOCH":"2026-04-05T04:11:38.812992","MEAN_MOTION":1.00274477,"ECCENTRICITY":0.00031734,"INCLINATION":0.0179,"RA_OF_ASC_NODE":252.883,"ARG_OF_PERICENTER":120.3077,"MEAN_ANOMALY":152.1962,"EPHEMERIS_TYPE":0,"CLASSIFICATION_TYPE":"U","NORAD_CAT_ID":54244,"ELEMENT_SET_NO":999,"REV_AT_EPOCH":1241,"BSTAR":0,"MEAN_MOTION_DOT":-1.73e-6,"MEAN_MOTION_DDOT":0},{"OBJECT_NAME":"EUTELSAT 10B","OBJECT_ID":"2022-157A","EPOCH":"2026-04-05T05:28:38.784288","MEAN_MOTION":1.00269081,"ECCENTRICITY":0.00020438,"INCLINATION":0.0603,"RA_OF_ASC_NODE":95.9756,"ARG_OF_PERICENTER":14.5432,"MEAN_ANOMALY":175.1367,"EPHEMERIS_TYPE":0,"CLASSIFICATION_TYPE":"U","NORAD_CAT_ID":54259,"ELEMENT_SET_NO":999,"REV_AT_EPOCH":1229,"BSTAR":0,"MEAN_MOTION_DOT":6.9e-7,"MEAN_MOTION_DDOT":0},{"OBJECT_NAME":"GALAXY 35 (G-35)","OBJECT_ID":"2022-170A","EPOCH":"2026-04-05T05:27:27.887904","MEAN_MOTION":1.00272427,"ECCENTRICITY":0.00021392,"INCLINATION":0.0074,"RA_OF_ASC_NODE":212.3098,"ARG_OF_PERICENTER":172.6669,"MEAN_ANOMALY":157.3154,"EPHEMERIS_TYPE":0,"CLASSIFICATION_TYPE":"U","NORAD_CAT_ID":54741,"ELEMENT_SET_NO":999,"REV_AT_EPOCH":1216,"BSTAR":0,"MEAN_MOTION_DOT":-1.61e-6,"MEAN_MOTION_DDOT":0},{"OBJECT_NAME":"GALAXY 36 (G-36)","OBJECT_ID":"2022-170B","EPOCH":"2026-04-05T03:46:00.118848","MEAN_MOTION":1.00271828,"ECCENTRICITY":0.00026476,"INCLINATION":0.0239,"RA_OF_ASC_NODE":138.1783,"ARG_OF_PERICENTER":278.1506,"MEAN_ANOMALY":104.6237,"EPHEMERIS_TYPE":0,"CLASSIFICATION_TYPE":"U","NORAD_CAT_ID":54742,"ELEMENT_SET_NO":999,"REV_AT_EPOCH":1204,"BSTAR":0,"MEAN_MOTION_DOT":-1.84e-6,"MEAN_MOTION_DDOT":0},{"OBJECT_NAME":"METEOSAT-12 (MTG-I1)","OBJECT_ID":"2022-170C","EPOCH":"2026-04-05T05:28:38.784288","MEAN_MOTION":1.00274811,"ECCENTRICITY":0.00015195,"INCLINATION":0.7406,"RA_OF_ASC_NODE":26.5987,"ARG_OF_PERICENTER":303.8062,"MEAN_ANOMALY":304.9865,"EPHEMERIS_TYPE":0,"CLASSIFICATION_TYPE":"U","NORAD_CAT_ID":54743,"ELEMENT_SET_NO":999,"REV_AT_EPOCH":1224,"BSTAR":0,"MEAN_MOTION_DOT":-5.0e-8,"MEAN_MOTION_DDOT":0},{"OBJECT_NAME":"SHIJIAN-23 (SJ-23)","OBJECT_ID":"2023-002A","EPOCH":"2026-04-03T17:42:03.288384","MEAN_MOTION":1.00478109,"ECCENTRICITY":0.0005735,"INCLINATION":3.5266,"RA_OF_ASC_NODE":79.2387,"ARG_OF_PERICENTER":268.7415,"MEAN_ANOMALY":262.0603,"EPHEMERIS_TYPE":0,"CLASSIFICATION_TYPE":"U","NORAD_CAT_ID":55131,"ELEMENT_SET_NO":999,"REV_AT_EPOCH":1176,"BSTAR":0,"MEAN_MOTION_DOT":-1.36e-6,"MEAN_MOTION_DDOT":0},{"OBJECT_NAME":"APSTAR-6E","OBJECT_ID":"2023-005A","EPOCH":"2026-04-04T10:00:02.948256","MEAN_MOTION":1.00271001,"ECCENTRICITY":6.743e-5,"INCLINATION":0.0177,"RA_OF_ASC_NODE":218.6762,"ARG_OF_PERICENTER":151.7754,"MEAN_ANOMALY":106.2989,"EPHEMERIS_TYPE":0,"CLASSIFICATION_TYPE":"U","NORAD_CAT_ID":55239,"ELEMENT_SET_NO":999,"REV_AT_EPOCH":1795,"BSTAR":0,"MEAN_MOTION_DOT":-3.18e-6,"MEAN_MOTION_DDOT":0},{"OBJECT_NAME":"USA 342","OBJECT_ID":"2023-008A","EPOCH":"2026-04-02T06:08:09.432672","MEAN_MOTION":1.00270632,"ECCENTRICITY":1.26e-5,"INCLINATION":0.0114,"RA_OF_ASC_NODE":230.5957,"ARG_OF_PERICENTER":338.898,"MEAN_ANOMALY":96.9531,"EPHEMERIS_TYPE":0,"CLASSIFICATION_TYPE":"U","NORAD_CAT_ID":55263,"ELEMENT_SET_NO":999,"REV_AT_EPOCH":1175,"BSTAR":0,"MEAN_MOTION_DOT":1.32e-6,"MEAN_MOTION_DDOT":0},{"OBJECT_NAME":"LDPE-3A","OBJECT_ID":"2023-008B","EPOCH":"2026-04-04T20:09:51.583968","MEAN_MOTION":0.99991196,"ECCENTRICITY":3.266e-5,"INCLINATION":2.1573,"RA_OF_ASC_NODE":82.5311,"ARG_OF_PERICENTER":333.5705,"MEAN_ANOMALY":226.6317,"EPHEMERIS_TYPE":0,"CLASSIFICATION_TYPE":"U","NORAD_CAT_ID":55264,"ELEMENT_SET_NO":999,"REV_AT_EPOCH":1108,"BSTAR":0,"MEAN_MOTION_DOT":-2.7e-6,"MEAN_MOTION_DDOT":0},{"OBJECT_NAME":"ELEKTRO-L 4","OBJECT_ID":"2023-016A","EPOCH":"2026-04-05T00:03:21.788064","MEAN_MOTION":1.00269941,"ECCENTRICITY":0.00010516,"INCLINATION":0.0542,"RA_OF_ASC_NODE":355.0602,"ARG_OF_PERICENTER":286.2831,"MEAN_ANOMALY":78.6382,"EPHEMERIS_TYPE":0,"CLASSIFICATION_TYPE":"U","NORAD_CAT_ID":55506,"ELEMENT_SET_NO":999,"REV_AT_EPOCH":1160,"BSTAR":0,"MEAN_MOTION_DOT":-5.8e-7,"MEAN_MOTION_DDOT":0},{"OBJECT_NAME":"AMAZONAS NEXUS","OBJECT_ID":"2023-017A","EPOCH":"2026-04-04T22:45:51.960384","MEAN_MOTION":1.00271255,"ECCENTRICITY":0.00053917,"INCLINATION":0.0522,"RA_OF_ASC_NODE":45.5189,"ARG_OF_PERICENTER":341.2431,"MEAN_ANOMALY":86.9548,"EPHEMERIS_TYPE":0,"CLASSIFICATION_TYPE":"U","NORAD_CAT_ID":55508,"ELEMENT_SET_NO":999,"REV_AT_EPOCH":631,"BSTAR":0,"MEAN_MOTION_DOT":-2.82e-6,"MEAN_MOTION_DDOT":0},{"OBJECT_NAME":"ZHONGXING-26","OBJECT_ID":"2023-023A","EPOCH":"2026-04-03T11:42:38.772864","MEAN_MOTION":1.00266831,"ECCENTRICITY":0.00045518,"INCLINATION":0.069,"RA_OF_ASC_NODE":63.7523,"ARG_OF_PERICENTER":347.1096,"MEAN_ANOMALY":81.6679,"EPHEMERIS_TYPE":0,"CLASSIFICATION_TYPE":"U","NORAD_CAT_ID":55686,"ELEMENT_SET_NO":999,"REV_AT_EPOCH":1148,"BSTAR":0,"MEAN_MOTION_DOT":-3.56e-6,"MEAN_MOTION_DDOT":0},{"OBJECT_NAME":"LUCH-5X (OLYMP-K 2)","OBJECT_ID":"2023-031A","EPOCH":"2026-04-03T16:32:38.361696","MEAN_MOTION":1.00271197,"ECCENTRICITY":0.0001389,"INCLINATION":0.0254,"RA_OF_ASC_NODE":86.6133,"ARG_OF_PERICENTER":131.9973,"MEAN_ANOMALY":283.5399,"EPHEMERIS_TYPE":0,"CLASSIFICATION_TYPE":"U","NORAD_CAT_ID":55841,"ELEMENT_SET_NO":999,"REV_AT_EPOCH":1119,"BSTAR":0,"MEAN_MOTION_DOT":3.1e-7,"MEAN_MOTION_DDOT":0}]
